INTELSAT 902 (IS-902)   
1 26900U 01039A   26160.33604480 -.00000268  00000+0  00000+0 0  9998
2 26900   6.0965  71.8795 0004431   4.1324 252.5782  1.00272656 90614
INTELSAT 904 (IS-904)   
1 27380U 02007A   26160.24488929 -.00000210  00000+0  00000+0 0  9992
2 27380   6.8994  69.2783 0006685   1.2026 243.8061  1.00272888 51689
DIRECTV 5 (TEMPO 1)     
1 27426U 02023A   26160.57930894 -.00000041  00000+0  00000+0 0  9992
2 27426   4.8574  75.4038 0003324  13.9875 267.0098  1.00271525 88048
INTELSAT 905 (IS-905)   
1 27438U 02027A   26160.56829466  .00000109  00000+0  00000+0 0  9994
2 27438   6.7335  69.8903 0003941  16.2508 239.1726  1.00270867 51281
GALAXY 3C (G-3C)        
1 27445U 02030A   26160.45915584 -.00000136  00000+0  00000+0 0  9992
2 27445   3.7102  78.0778 0001737  31.9492 218.2554  1.00271650 46414
INTELSAT 906 (IS-906)   
1 27513U 02041A   26160.29072391  .00000029  00000+0  00000+0 0  9992
2 27513   5.7837  73.0175 0004648 359.0917 354.3483  1.00271320 86942
GALAXY 13 (HORIZONS-1)  
1 27954U 03044A   26160.53858778  .00000150  00000+0  00000+0 0  9998
2 27954   1.4004  83.9525 0002106 350.9821 226.8645  1.00273791 46493
INTELSAT 10-02          
1 28358U 04022A   26160.05649573  .00000005  00000+0  00000+0 0  9991
2 28358   0.0151 336.1514 0000525 195.6343 104.9809  1.00269264 80471
DIRECTV 8               
1 28659U 05019A   26160.57560721  .00000018  00000+0  00000+0 0  9990
2 28659   0.0180  10.9063 0002942  70.8231 264.3911  1.00271705 76998
GALAXY 28 (G-28)        
1 28702U 05022A   26160.47908554 -.00000183  00000+0  00000+0 0  9996
2 28702   3.2797  79.0257 0002844 355.1652 329.0288  1.00272250 51898
GALAXY 16 (G-16)        
1 29236U 06023A   26160.46081002 -.00000110  00000+0  00000+0 0  9990
2 29236   0.0315 124.8985 0002623 314.6408 245.1920  1.00271496 72898
DIRECTV 9S              
1 29494U 06043A   26160.46215101 -.00000097  00000+0  00000+0 0  9991
2 29494   2.3998  80.9943 0004998   7.7023 234.3305  1.00271311 51308
GALAXY 17 (G-17)        
1 31307U 07016B   26160.43901279 -.00000190  00000+0  00000+0 0  9997
2 31307   2.9516  79.9973 0004833  16.8718 234.0007  1.00271287 69720
INTELSAT 11 (IS-11)     
1 32253U 07044B   26160.54287781 -.00000244  00000+0  00000+0 0  9996
2 32253   3.5446  78.7612 0001945  84.8250  89.1889  0.99053555 68374
HORIZONS-2              
1 32388U 07063B   26160.39849964 -.00000237  00000+0  00000+0 0  9998
2 32388   2.5810  80.7204 0003939 356.2390 250.5084  1.00271450 67732
DIRECTV 11              
1 32729U 08013A   26160.05357880 -.00000109  00000+0  00000+0 0  9995
2 32729   0.0372 171.9066 0000327 221.7276 143.9123  1.00271306 45514
GALAXY 18 (G-18)        
1 32951U 08024A   26160.47072078  .00000042  00000+0  00000+0 0  9998
2 32951   0.0168 306.8925 0003152 143.3934 214.0232  1.00272571 45770
INTELSAT 25 (IS-25)     
1 33153U 08034A   26159.87418093 -.00000246  00000+0  00000+0 0  9994
2 33153   2.6860  80.4286 0001903  35.5606 254.5892  0.99020453 65609
GALAXY 19 (G-19)        
1 33376U 08045A   26160.05477479 -.00000122  00000+0  00000+0 0  9991
2 33376   0.0188 273.3735 0002720 164.3319 102.4621  1.00271006 64822
FM-5                    
1 35493U 09034A   26160.43709679 -.00000183  00000+0  00000+0 0  9991
2 35493   0.0198 289.1294 0000648  14.9544  24.9428  1.00271617 46569
INTELSAT 14 (IS-14)     
1 36097U 09064A   26160.30808655 -.00000257  00000+0  00000+0 0  9997
2 36097   0.0138 334.2610 0002763 120.8705 228.4733  1.00270426 60523
INTELSAT 15 (IS-15)     
1 36106U 09067A   26160.50134569 -.00000168  00000+0  00000+0 0  9990
2 36106   0.0170 344.6424 0002235  97.5858  81.2847  1.00271070 41156
DIRECTV 12              
1 36131U 09075A   26160.30393988 -.00000086  00000+0  00000+0 0  9996
2 36131   0.0431 137.4498 0000297 268.2862 218.6427  1.00271118 46474
INTELSAT 16 (IS-16)     
1 36397U 10006A   26160.44122503 -.00000227  00000+0  00000+0 0  9991
2 36397   0.0094 323.2865 0002137 133.7916 243.3871  1.00269681 59572
XM-5                    
1 37185U 10053A   26159.96257545 -.00000006  00000+0  00000+0 0  9994
2 37185   0.0671 272.7941 0002723 285.1463 290.7439  1.00270322 57402
INTELSAT 17 (IS-17)     
1 37238U 10065B   26160.49753235  .00000015  00000+0  00000+0 0  9992
2 37238   0.0077 118.4705 0002564 331.0994  53.4133  1.00272629 53175
INTELSAT 28 (IS-28)     
1 37392U 11016A   26160.40690635 -.00000208  00000+0  00000+0 0  9990
2 37392   1.7851  82.7187 0003785   0.7235 289.1230  1.00272150 53204
INTELSAT 18 (IS-18)     
1 37834U 11056A   26160.09223808  .00000070  00000+0  00000+0 0  9990
2 37834   0.0012 354.7032 0002067 100.6597  15.3233  1.00272262 53734
INTELSAT 22 (IS-22)     
1 38098U 12011A   26160.14221766 -.00000042  00000+0  00000+0 0  9992
2 38098   0.0264  67.7528 0001605   2.5980 310.4768  1.00273409  7106
INTELSAT 19 (IS-19)     
1 38356U 12030A   26160.52822507 -.00000039  00000+0  00000+0 0  9998
2 38356   0.0192 333.0929 0003028 113.0646 167.9116  1.00271943 50375
INTELSAT 20 (IS-20)     
1 38740U 12043A   26160.42673384 -.00000008  00000+0  00000+0 0  9991
2 38740   0.0004  36.0722 0001687 138.8297 305.0277  1.00272739 50671
